IRIDIUM 144             
1 43249U 18030A   25038.78110405  .00000280  00000+0  93076-4 0  9996
2 43249  86.4010 137.1133 0002203  96.9073 263.2373 14.34219234359290
IRIDIUM 149             
1 43250U 18030B   25038.78744309  .00000423  00000+0  14383-3 0  9996
2 43250  86.4008 137.0833 0002167  92.0874 268.0570 14.34216511359297
IRIDIUM 157             
1 43251U 18030C   25037.75994928  .00000657  00000+0  22735-3 0  9996
2 43251  86.4010 137.5543 0001829  95.3054 264.8350 14.34220710359122
IRIDIUM 140             
1 43252U 18030D   25037.77897641  .00000527  00000+0  18129-3 0  9991
2 43252  86.4012 137.5604 0002233  98.3125 261.8324 14.34217537359182
IRIDIUM 145             
1 43253U 18030E   25038.81281644 -.00000099  00000+0 -42272-4 0  9991
2 43253  86.4011 137.1017 0002284  89.4528 270.6929 14.34217976359265
IRIDIUM 146             
1 43254U 18030F   25038.79379165  .00000051  00000+0  11294-4 0  9991
2 43254  86.4007 137.1238 0002584  92.0783 268.0709 14.34217573359273
IRIDIUM 148             
1 43255U 18030G   25037.78531851  .00000286  00000+0  95172-4 0  9999
2 43255  86.4012 137.5802 0002149  91.9677 268.1765 14.34216991359162
IRIDIUM 142             
1 43256U 18030H   25038.80013270  .00000459  00000+0  15677-3 0  9997
2 43256  86.4008 137.0638 0002375  87.4122 272.7346 14.34219327359270
