<?xml version="1.0" encoding="UTF-8"?>
<ndm xmlns:xsi="http://www.w3.org/2001/XMLSchema-instance" xsi:noNamespaceSchemaLocation="https://sanaregistry.org/r/ndmxml_unqualified/ndmxml-2.0.0-master-2.0.xsd">
<omm id="CCSDS_OMM_VERS" version="2.0">
<header><CREATION_DATE/><ORIGINATOR/></header><body><segment><metadata><OBJECT_NAME>IRIDIUM 144</OBJECT_NAME><OBJECT_ID>2018-030A</OBJECT_ID><CENTER_NAME>EARTH</CENTER_NAME><REF_FRAME>TEME</REF_FRAME><TIME_SYSTEM>UTC</TIME_SYSTEM><MEAN_ELEMENT_THEORY>SGP4</MEAN_ELEMENT_THEORY></metadata><data><meanElements><EPOCH>2025-02-07T18:44:47.389920</EPOCH><MEAN_MOTION>14.34219234</MEAN_MOTION><ECCENTRICITY>.0002203</ECCENTRICITY><INCLINATION>86.4010</INCLINATION><RA_OF_ASC_NODE>137.1133</RA_OF_ASC_NODE><ARG_OF_PERICENTER>96.9073</ARG_OF_PERICENTER><MEAN_ANOMALY>263.2373</MEAN_ANOMALY></meanElements><tleParameters><EPHEMERIS_TYPE>0</EPHEMERIS_TYPE><CLASSIFICATION_TYPE>U</CLASSIFICATION_TYPE><NORAD_CAT_ID>43249</NORAD_CAT_ID><ELEMENT_SET_NO>999</ELEMENT_SET_NO><REV_AT_EPOCH>35929</REV_AT_EPOCH><BSTAR>.93076E-4</BSTAR><MEAN_MOTION_DOT>.28E-5</MEAN_MOTION_DOT><MEAN_MOTION_DDOT>0</MEAN_MOTION_DDOT></tleParameters></data></segment></body></omm>
<omm id="CCSDS_OMM_VERS" version="2.0">
<header><CREATION_DATE/><ORIGINATOR/></header><body><segment><metadata><OBJECT_NAME>IRIDIUM 149</OBJECT_NAME><OBJECT_ID>2018-030B</OBJECT_ID><CENTER_NAME>EARTH</CENTER_NAME><REF_FRAME>TEME</REF_FRAME><TIME_SYSTEM>UTC</TIME_SYSTEM><MEAN_ELEMENT_THEORY>SGP4</MEAN_ELEMENT_THEORY></metadata><data><meanElements><EPOCH>2025-02-07T18:53:55.082976</EPOCH><MEAN_MOTION>14.34216511</MEAN_MOTION><ECCENTRICITY>.0002167</ECCENTRICITY><INCLINATION>86.4008</INCLINATION><RA_OF_ASC_NODE>137.0833</RA_OF_ASC_NODE><ARG_OF_PERICENTER>92.0874</ARG_OF_PERICENTER><MEAN_ANOMALY>268.0570</MEAN_ANOMALY></meanElements><tleParameters><EPHEMERIS_TYPE>0</EPHEMERIS_TYPE><CLASSIFICATION_TYPE>U</CLASSIFICATION_TYPE><NORAD_CAT_ID>43250</NORAD_CAT_ID><ELEMENT_SET_NO>999</ELEMENT_SET_NO><REV_AT_EPOCH>35929</REV_AT_EPOCH><BSTAR>.14383E-3</BSTAR><MEAN_MOTION_DOT>.423E-5</MEAN_MOTION_DOT><MEAN_MOTION_DDOT>0</MEAN_MOTION_DDOT></tleParameters></data></segment></body></omm>
<omm id="CCSDS_OMM_VERS" version="2.0">
<header><CREATION_DATE/><ORIGINATOR/></header><body><segment><metadata><OBJECT_NAME>IRIDIUM 157</OBJECT_NAME><OBJECT_ID>2018-030C</OBJECT_ID><CENTER_NAME>EARTH</CENTER_NAME><REF_FRAME>TEME</REF_FRAME><TIME_SYSTEM>UTC</TIME_SYSTEM><MEAN_ELEMENT_THEORY>SGP4</MEAN_ELEMENT_THEORY></metadata><data><meanElements><EPOCH>2025-02-06T18:14:19.617792</EPOCH><MEAN_MOTION>14.34220710</MEAN_MOTION><ECCENTRICITY>.0001829</ECCENTRICITY><INCLINATION>86.4010</INCLINATION><RA_OF_ASC_NODE>137.5543</RA_OF_ASC_NODE><ARG_OF_PERICENTER>95.3054</ARG_OF_PERICENTER><MEAN_ANOMALY>264.8350</MEAN_ANOMALY></meanElements><tleParameters><EPHEMERIS_TYPE>0</EPHEMERIS_TYPE><CLASSIFICATION_TYPE>U</CLASSIFICATION_TYPE><NORAD_CAT_ID>43251</NORAD_CAT_ID><ELEMENT_SET_NO>999</ELEMENT_SET_NO><REV_AT_EPOCH>35912</REV_AT_EPOCH><BSTAR>.22735E-3</BSTAR><MEAN_MOTION_DOT>.657E-5</MEAN_MOTION_DOT><MEAN_MOTION_DDOT>0</MEAN_MOTION_DDOT></tleParameters></data></segment></body></omm>
<omm id="CCSDS_OMM_VERS" version="2.0">
<header><CREATION_DATE/><ORIGINATOR/></header><body><segment><metadata><OBJECT_NAME>IRIDIUM 140</OBJECT_NAME><OBJECT_ID>2018-030D</OBJECT_ID><CENTER_NAME>EARTH</CENTER_NAME><REF_FRAME>TEME</REF_FRAME><TIME_SYSTEM>UTC</TIME_SYSTEM><MEAN_ELEMENT_THEORY>SGP4</MEAN_ELEMENT_THEORY></metadata><data><meanElements><EPOCH>2025-02-06T18:41:43.561824</EPOCH><MEAN_MOTION>14.34217537</MEAN_MOTION><ECCENTRICITY>.0002233</ECCENTRICITY><INCLINATION>86.4012</INCLINATION><RA_OF_ASC_NODE>137.5604</RA_OF_ASC_NODE><ARG_OF_PERICENTER>98.3125</ARG_OF_PERICENTER><MEAN_ANOMALY>261.8324</MEAN_ANOMALY></meanElements><tleParameters><EPHEMERIS_TYPE>0</EPHEMERIS_TYPE><CLASSIFICATION_TYPE>U</CLASSIFICATION_TYPE><NORAD_CAT_ID>43252</NORAD_CAT_ID><ELEMENT_SET_NO>999</ELEMENT_SET_NO><REV_AT_EPOCH>35918</REV_AT_EPOCH><BSTAR>.18129E-3</BSTAR><MEAN_MOTION_DOT>.527E-5</MEAN_MOTION_DOT><MEAN_MOTION_DDOT>0</MEAN_MOTION_DDOT></tleParameters></data></segment></body></omm>
<omm id="CCSDS_OMM_VERS" version="2.0">
<header><CREATION_DATE/><ORIGINATOR/></header><body><segment><metadata><OBJECT_NAME>IRIDIUM 145</OBJECT_NAME><OBJECT_ID>2018-030E</OBJECT_ID><CENTER_NAME>EARTH</CENTER_NAME><REF_FRAME>TEME</REF_FRAME><TIME_SYSTEM>UTC</TIME_SYSTEM><MEAN_ELEMENT_THEORY>SGP4</MEAN_ELEMENT_THEORY></metadata><data><meanElements><EPOCH>2025-02-07T19:30:27.340416</EPOCH><MEAN_MOTION>14.34217976</MEAN_MOTION><ECCENTRICITY>.0002284</ECCENTRICITY><INCLINATION>86.4011</INCLINATION><RA_OF_ASC_NODE>137.1017</RA_OF_ASC_NODE><ARG_OF_PERICENTER>89.4528</ARG_OF_PERICENTER><MEAN_ANOMALY>270.6929</MEAN_ANOMALY></meanElements><tleParameters><EPHEMERIS_TYPE>0</EPHEMERIS_TYPE><CLASSIFICATION_TYPE>U</CLASSIFICATION_TYPE><NORAD_CAT_ID>43253</NORAD_CAT_ID><ELEMENT_SET_NO>999</ELEMENT_SET_NO><REV_AT_EPOCH>35926</REV_AT_EPOCH><BSTAR>-.42272E-4</BSTAR><MEAN_MOTION_DOT>-.99E-6</MEAN_MOTION_DOT><MEAN_MOTION_DDOT>0</MEAN_MOTION_DDOT></tleParameters></data></segment></body></omm>
<omm id="CCSDS_OMM_VERS" version="2.0">
<header><CREATION_DATE/><ORIGINATOR/></header><body><segment><metadata><OBJECT_NAME>IRIDIUM 146</OBJECT_NAME><OBJECT_ID>2018-030F</OBJECT_ID><CENTER_NAME>EARTH</CENTER_NAME><REF_FRAME>TEME</REF_FRAME><TIME_SYSTEM>UTC</TIME_SYSTEM><MEAN_ELEMENT_THEORY>SGP4</MEAN_ELEMENT_THEORY></metadata><data><meanElements><EPOCH>2025-02-07T19:03:03.598560</EPOCH><MEAN_MOTION>14.34217573</MEAN_MOTION><ECCENTRICITY>.0002584</ECCENTRICITY><INCLINATION>86.4007</INCLINATION><RA_OF_ASC_NODE>137.1238</RA_OF_ASC_NODE><ARG_OF_PERICENTER>92.0783</ARG_OF_PERICENTER><MEAN_ANOMALY>268.0709</MEAN_ANOMALY></meanElements><tleParameters><EPHEMERIS_TYPE>0</EPHEMERIS_TYPE><CLASSIFICATION_TYPE>U</CLASSIFICATION_TYPE><NORAD_CAT_ID>43254</NORAD_CAT_ID><ELEMENT_SET_NO>999</ELEMENT_SET_NO><REV_AT_EPOCH>35927</REV_AT_EPOCH><BSTAR>.11294E-4</BSTAR><MEAN_MOTION_DOT>.51E-6</MEAN_MOTION_DOT><MEAN_MOTION_DDOT>0</MEAN_MOTION_DDOT></tleParameters></data></segment></body></omm>
<omm id="CCSDS_OMM_VERS" version="2.0">
<header><CREATION_DATE/><ORIGINATOR/></header><body><segment><metadata><OBJECT_NAME>IRIDIUM 148</OBJECT_NAME><OBJECT_ID>2018-030G</OBJECT_ID><CENTER_NAME>EARTH</CENTER_NAME><REF_FRAME>TEME</REF_FRAME><TIME_SYSTEM>UTC</TIME_SYSTEM><MEAN_ELEMENT_THEORY>SGP4</MEAN_ELEMENT_THEORY></metadata><data><meanElements><EPOCH>2025-02-06T18:50:51.519264</EPOCH><MEAN_MOTION>14.34216991</MEAN_MOTION><ECCENTRICITY>.0002149</ECCENTRICITY><INCLINATION>86.4012</INCLINATION><RA_OF_ASC_NODE>137.5802</RA_OF_ASC_NODE><ARG_OF_PERICENTER>91.9677</ARG_OF_PERICENTER><MEAN_ANOMALY>268.1765</MEAN_ANOMALY></meanElements><tleParameters><EPHEMERIS_TYPE>0</EPHEMERIS_TYPE><CLASSIFICATION_TYPE>U</CLASSIFICATION_TYPE><NORAD_CAT_ID>43255</NORAD_CAT_ID><ELEMENT_SET_NO>999</ELEMENT_SET_NO><REV_AT_EPOCH>35916</REV_AT_EPOCH><BSTAR>.95172E-4</BSTAR><MEAN_MOTION_DOT>.286E-5</MEAN_MOTION_DOT><MEAN_MOTION_DDOT>0</MEAN_MOTION_DDOT></tleParameters></data></segment></body></omm>
<omm id="CCSDS_OMM_VERS" version="2.0">
<header><CREATION_DATE/><ORIGINATOR/></header><body><segment><metadata><OBJECT_NAME>IRIDIUM 142</OBJECT_NAME><OBJECT_ID>2018-030H</OBJECT_ID><CENTER_NAME>EARTH</CENTER_NAME><REF_FRAME>TEME</REF_FRAME><TIME_SYSTEM>UTC</TIME_SYSTEM><MEAN_ELEMENT_THEORY>SGP4</MEAN_ELEMENT_THEORY></metadata><data><meanElements><EPOCH>2025-02-07T19:12:11.465280</EPOCH><MEAN_MOTION>14.34219327</MEAN_MOTION><ECCENTRICITY>.0002375</ECCENTRICITY><INCLINATION>86.4008</INCLINATION><RA_OF_ASC_NODE>137.0638</RA_OF_ASC_NODE><ARG_OF_PERICENTER>87.4122</ARG_OF_PERICENTER><MEAN_ANOMALY>272.7346</MEAN_ANOMALY></meanElements><tleParameters><EPHEMERIS_TYPE>0</EPHEMERIS_TYPE><CLASSIFICATION_TYPE>U</CLASSIFICATION_TYPE><NORAD_CAT_ID>43256</NORAD_CAT_ID><ELEMENT_SET_NO>999</ELEMENT_SET_NO><REV_AT_EPOCH>35927</REV_AT_EPOCH><BSTAR>.15677E-3</BSTAR><MEAN_MOTION_DOT>.459E-5</MEAN_MOTION_DOT><MEAN_MOTION_DDOT>0</MEAN_MOTION_DDOT></tleParameters></data></segment></body></omm>

</ndm>
